<?xml version="1.0" encoding="utf-8" standalone="yes"?>
<kml xmlns="http://www.opengis.net/kml/2.2">
  <Document>
    <name><![CDATA[William Wallace 50km]]></name>
    <visibility>1</visibility>
    <open>1</open>
        <Style id="s0">
      <LineStyle>
        <color>B00000FF</color>
        <width>6</width>
      </LineStyle>
      <BalloonStyle>
        <text><![CDATA[<div style="font-family:Arial,sans-serif; min-width:200px;"><h3>{{$name}}</h3> <div style="margin-top:8px;">$[description]</div></div>]]></text>
      </BalloonStyle>
    </Style>
    <Folder id="Tracks">
      <name>Tracks</name>
      <visibility>1</visibility>
      <open>0</open>
          <Placemark>
        <name><![CDATA[not set]]></name>
        <Snippet></Snippet>
        <description><![CDATA[&nbsp;]]></description>
         <styleUrl>#s0</styleUrl>
        <MultiGeometry>
          <LineString>
            <tessellate>1</tessellate>
            <altitudeMode>clampToGround</altitudeMode>
            <coordinates>-3.91031,56.12233,6 -3.91035,56.12187,6 -3.91019,56.12134,7 -3.91001,56.12124,7 -3.90988,56.11898,8 -3.91122,56.11822,9 -3.91097,56.11759,9 -3.91133,56.11732,9 -3.9109,56.11702,9 -3.911,56.11677,9 -3.91149,56.11655,9 -3.91242,56.11642,9 -3.91266,56.11623,9 -3.91505,56.11204,11 -3.91336,56.11174,11 -3.91326,56.11159,11 -3.9126,56.11132,11 -3.91212,56.11098,11 -3.91091,56.10975,11 -3.91094,56.10963,11 -3.9108,56.10959,11 -3.9106,56.1093,12 -3.91058,56.10873,12 -3.91072,56.10864,12 -3.91139,56.10868,12 -3.91154,56.10862,12 -3.91209,56.1076,12 -3.91283,56.10698,12 -3.91316,56.10653,12 -3.9131,56.10616,12 -3.91254,56.10548,13 -3.9129,56.10502,13 -3.91369,56.10456,12 -3.91321,56.10317,12 -3.91282,56.10251,12 -3.91354,56.10164,13 -3.91343,56.10139,13 -3.91,56.099,13 -3.91049,56.0986,14 -3.91067,56.09856,14 -3.91176,56.09734,16 -3.91193,56.09745,17 -3.91198,56.09718,17 -3.91186,56.09704,17 -3.9127,56.0964,20 -3.91321,56.09562,22 -3.91284,56.09488,24 -3.91241,56.09472,25 -3.9126,56.09418,27 -3.91327,56.09362,29 -3.91284,56.09344,30 -3.91273,56.09351,30 -3.91267,56.09266,34 -3.91323,56.09238,35 -3.91359,56.09194,37 -3.91341,56.09177,37 -3.91306,56.09176,38 -3.91289,56.09167,38 -3.91289,56.0915,39 -3.91267,56.09134,39 -3.91202,56.09115,41 -3.91265,56.09068,42 -3.91214,56.09043,41 -3.91297,56.09087,41 -3.91309,56.09081,41 -3.91597,56.09104,41 -3.9166,56.09098,40 -3.91803,56.09174,38 -3.91993,56.09162,37 -3.92033,56.09165,37 -3.9211,56.09152,37 -3.92214,56.09086,37 -3.92234,56.09059,37 -3.92222,56.08977,38 -3.92035,56.08845,44 -3.92004,56.08841,45 -3.91967,56.08813,46 -3.91957,56.08793,47 -3.9191,56.08763,48 -3.91892,56.0876,48 -3.91925,56.08724,49 -3.91918,56.08694,49 -3.91963,56.08654,48 -3.92186,56.0861,46 -3.9232,56.08617,46 -3.92359,56.08632,46 -3.92413,56.08628,46 -3.92452,56.08646,45 -3.92597,56.08685,46 -3.92622,56.08709,46 -3.92697,56.08729,46 -3.92709,56.0874,46 -3.92744,56.08745,46 -3.92761,56.08756,46 -3.92813,56.08728,46 -3.92974,56.08801,46 -3.92999,56.08841,47 -3.93046,56.08828,47 -3.93103,56.08886,48 -3.93311,56.09257,53 -3.93788,56.09334,54 -3.93851,56.09384,53 -3.93873,56.09384,53 -3.93836,56.09346,52 -3.93849,56.09281,51 -3.93841,56.09235,50 -3.93885,56.09194,48 -3.93959,56.09171,48 -3.94159,56.09042,48 -3.94208,56.0899,48 -3.94314,56.08932,50 -3.94627,56.08852,54 -3.94702,56.08821,55 -3.94745,56.08792,56 -3.94782,56.08747,57 -3.94812,56.08621,62 -3.94862,56.08569,65 -3.94988,56.08502,68 -3.95282,56.08588,67 -3.95319,56.08622,67 -3.95733,56.08694,68 -3.95807,56.08731,68 -3.95901,56.08734,68 -3.96393,56.08824,73 -3.96814,56.08948,80 -3.96928,56.08947,82 -3.97088,56.08967,86 -3.97456,56.09071,91 -3.97685,56.09174,90 -3.9777,56.09225,90 -3.97847,56.09285,89 -3.97846,56.0931,89 -3.97742,56.09352,86 -3.9774,56.09359,86 -3.97684,56.09378,84 -3.97454,56.09418,88 -3.9736,56.09427,92 -3.97292,56.09444,96 -3.97644,56.09597,107 -3.97676,56.0962,107 -3.97701,56.09661,109 -3.97837,56.09744,112 -3.97872,56.09742,112 -3.97944,56.09763,110 -3.98051,56.09821,108 -3.98112,56.09926,110 -3.98193,56.10001,112 -3.98252,56.10094,111 -3.98262,56.10132,110 -3.98253,56.1016,110 -3.98211,56.1019,112 -3.9827,56.10317,112 -3.9827,56.10389,106 -3.9825,56.10419,104 -3.98046,56.10593,97 -3.98015,56.10634,93 -3.97946,56.10684,87 -3.97807,56.10741,81 -3.97683,56.10751,77 -3.97615,56.10769,76 -3.97394,56.10789,71 -3.97048,56.1079,60 -3.96939,56.10828,56 -3.96865,56.10829,53 -3.96868,56.10912,46 -3.96753,56.10894,40 -3.96437,56.10782,42 -3.96221,56.10681,43 -3.96108,56.10663,44 -3.9586,56.10607,43 -3.95763,56.10562,43 -3.95722,56.10521,43 -3.95696,56.10514,43 -3.95539,56.10545,44 -3.95485,56.10498,43 -3.9544,56.10476,43 -3.95332,56.10453,43 -3.95147,56.10444,43 -3.94889,56.10392,45 -3.94683,56.10383,48 -3.94657,56.10389,48 -3.9464,56.10409,49 -3.94737,56.10559,45 -3.9453,56.10601,42 -3.94387,56.10656,42 -3.94411,56.10675,42 -3.94258,56.10783,41 -3.94142,56.10827,41 -3.94103,56.10852,41 -3.94034,56.10833,40 -3.94025,56.10843,40 -3.93992,56.10844,40 -3.9386,56.11079,38 -3.93855,56.11182,37 -3.94181,56.11181,35 -3.94234,56.11189,36 -3.9457,56.11346,37 -3.94545,56.11357,37 -3.94631,56.11378,37 -3.9491,56.11337,37 -3.94925,56.11323,37 -3.94903,56.11293,37 -3.94819,56.11241,38 -3.94883,56.11197,39 -3.9492,56.112,39 -3.95024,56.11176,40 -3.9512,56.11203,40 -3.9514,56.11218,40 -3.95222,56.11234,40 -3.95249,56.11263,40 -3.95296,56.11274,40 -3.9529,56.11289,40 -3.95313,56.11301,40 -3.95329,56.11299,40 -3.95325,56.11307,41 -3.95377,56.1131,41 -3.95389,56.11328,41 -3.9561,56.11371,45 -3.9565,56.11373,45 -3.958,56.11415,48 -3.95887,56.11422,48 -3.96077,56.1149,48 -3.9617,56.11513,47 -3.96313,56.11604,42 -3.96418,56.11657,36 -3.96425,56.11668,35 -3.96412,56.11693,33 -3.96363,56.11706,31 -3.9627,56.11676,35 -3.96248,56.11682,36 -3.96314,56.11753,36 -3.96299,56.1177,35 -3.96223,56.11798,33 -3.96035,56.11831,34 -3.96024,56.11827,34 -3.95788,56.11852,32 -3.95493,56.1186,29 -3.95075,56.11835,29 -3.95078,56.11876,29 -3.95135,56.11903,28 -3.95224,56.11923,27 -3.95199,56.11968,26 -3.9517,56.11987,25 -3.95085,56.11997,25 -3.94961,56.11947,27 -3.9484,56.11917,29 -3.94777,56.11912,31 -3.94648,56.11877,34 -3.94123,56.11771,33 -3.94114,56.11779,32 -3.93963,56.11791,30 -3.94061,56.11818,32 -3.94283,56.11914,40 -3.94411,56.11952,45 -3.94498,56.12031,51 -3.94618,56.12091,54 -3.94625,56.1211,55 -3.94685,56.12157,56 -3.94669,56.12222,61 -3.94543,56.12192,64 -3.94536,56.12181,64 -3.94495,56.12191,63 -3.94433,56.1218,62 -3.94427,56.12186,62 -3.94413,56.12183,62 -3.94446,56.12234,63 -3.94528,56.12275,66 -3.94543,56.12314,67 -3.94532,56.12328,67 -3.94523,56.12324,67 -3.94553,56.12374,63 -3.94527,56.1238,61 -3.94396,56.12344,52 -3.94356,56.12387,47 -3.94357,56.12424,43 -3.94329,56.12456,38 -3.94271,56.12479,33 -3.94198,56.12532,28 -3.94183,56.12568,27 -3.94208,56.12601,26 -3.94193,56.12645,25 -3.94216,56.12663,25 -3.94268,56.12754,24 -3.94264,56.12767,24 -3.94273,56.12768,24 -3.94264,56.12767,25 -3.94268,56.12754,25 -3.94216,56.12663,20 -3.94193,56.12645,19 -3.94185,56.12658,18 -3.94137,56.12652,16 -3.94107,56.1271,13 -3.94078,56.12718,12 -3.93993,56.12767,9 -3.9392,56.12831,7 -3.93829,56.12832,6 -3.93798,56.12841,5 -3.93801,56.12846,5 -3.93769,56.12858,5 -3.93747,56.12917,5 -3.93704,56.12962,5 -3.93692,56.13009,5 -3.93702,56.13052,5 -3.93763,56.131,5 -3.93919,56.13167,5 -3.94139,56.13216,5 -3.94299,56.13243,5 -3.94687,56.13286,6 -3.94852,56.13287,6 -3.95064,56.13272,7 -3.95267,56.13228,7 -3.95306,56.13233,7 -3.95565,56.13202,7 -3.95675,56.13204,7 -3.95685,56.13199,7 -3.95779,56.13215,7 -3.95852,56.13237,7 -3.95947,56.13317,6 -3.95979,56.13436,5 -3.9596,56.13475,5 -3.95907,56.13515,4 -3.9588,56.13524,4 -3.95792,56.13584,4 -3.9572,56.13596,4 -3.9551,56.13661,4 -3.95246,56.13766,4 -3.95212,56.13795,4 -3.95166,56.13866,5 -3.95153,56.13924,5 -3.95176,56.13976,4 -3.95205,56.14004,4 -3.95274,56.14034,4 -3.95479,56.14081,4 -3.95627,56.14105,4 -3.95716,56.14138,4 -3.95779,56.14147,4 -3.95791,56.14161,5 -3.95855,56.14187,5 -3.95905,56.14185,5 -3.96053,56.1415,5 -3.96099,56.14124,5 -3.96124,56.1412,5 -3.96274,56.14038,5 -3.96334,56.14014,6 -3.96434,56.13935,6 -3.9643,56.13891,7 -3.96483,56.13845,7 -3.9653,56.13823,7 -3.96255,56.13806,8 -3.96232,56.13794,8 -3.96337,56.13615,9 -3.96416,56.13427,10 -3.96519,56.13348,10 -3.9651,56.13345,10 -3.96523,56.13331,10 -3.96465,56.13314,10 -3.96456,56.13294,10 -3.96379,56.13292,10 -3.96228,56.13268,9 -3.96205,56.13275,9 -3.96175,56.13272,9 -3.96031,56.1321,9 -3.9571,56.13136,8 -3.95475,56.13097,9 -3.95479,56.13112,9 -3.95478,56.13097,9 -3.95641,56.13124,8 -3.95608,56.13204,7 -3.95565,56.13202,7 -3.95306,56.13233,7 -3.95267,56.13228,7 -3.95064,56.13272,6 -3.94852,56.13287,6 -3.94687,56.13286,6 -3.94299,56.13243,5 -3.94139,56.13216,5 -3.93919,56.13167,5 -3.93763,56.131,5 -3.93702,56.13052,5 -3.93692,56.13009,5 -3.93704,56.12962,5 -3.93747,56.12917,5 -3.93769,56.12858,6 -3.93801,56.12846,6 -3.93798,56.12841,6 -3.93613,56.12877,5 -3.93472,56.12969,6 -3.93612,56.13155,6 -3.93663,56.13197,6 -3.93752,56.13243,6 -3.9422,56.13347,5 -3.94367,56.13373,5 -3.94861,56.13392,5 -3.95083,56.13364,5 -3.95494,56.13274,6 -3.95594,56.13265,6 -3.95674,56.13277,6 -3.95747,56.13326,5 -3.95769,56.13352,5 -3.95783,56.13416,4 -3.95727,56.13494,4 -3.9569,56.13518,4 -3.95553,56.1357,4 -3.95408,56.13606,4 -3.95369,56.13609,4 -3.95154,56.13703,5 -3.95071,56.13811,5 -3.95045,56.13871,6 -3.95052,56.139,6 -3.9504,56.13913,6 -3.95051,56.13934,6 -3.95042,56.13951,6 -3.94683,56.14002,8 -3.94636,56.13974,8 -3.94611,56.13972,8 -3.94545,56.13984,8 -3.94654,56.14234,9 -3.94731,56.14312,9 -3.94706,56.14374,9 -3.94724,56.14448,9 -3.94724,56.14618,9 -3.94699,56.14706,9 -3.94707,56.14784,9 -3.95016,56.14803,6 -3.95068,56.14799,6 -3.95121,56.14805,6 -3.9511,56.14844,5 -3.95047,56.14933,6 -3.94939,56.15035,7 -3.94888,56.15109,8 -3.94868,56.15098,8 -3.94853,56.15103,8 -3.94879,56.15113,8 -3.94866,56.15154,9 -3.94885,56.15273,10 -3.94933,56.15327,11 -3.94909,56.15372,12 -3.94764,56.15552,22 -3.94904,56.15583,23 -3.95038,56.15579,21 -3.95072,56.15588,21 -3.95073,56.15629,22 -3.95099,56.15697,27 -3.95173,56.15787,32 -3.9527,56.15829,32 -3.9527,56.15843,33 -3.95149,56.15955,47 -3.95196,56.15967,48 -3.95189,56.16042,52 -3.95176,56.16066,54 -3.95078,56.16111,64 -3.94905,56.16135,78 -3.94746,56.1622,89 -3.94668,56.16237,94 -3.94463,56.16369,102 -3.94215,56.1633,119 -3.94001,56.16511,123 -3.93936,56.16513,125 -3.93632,56.16403,141 -3.93212,56.16288,157 -3.93108,56.16411,160 -3.93079,56.16416,160 -3.9296,56.16468,164 -3.92872,56.16479,166 -3.92831,56.16469,168 -3.92722,56.1646,171 -3.92533,56.16479,177 -3.92475,56.16491,178 -3.92326,56.16546,180 -3.92285,56.16497,181 -3.92204,56.16438,183 -3.92146,56.16414,185 -3.92029,56.16328,192 -3.91844,56.1634,192 -3.91801,56.16335,191 -3.91751,56.16299,190 -3.91717,56.16218,194 -3.91659,56.16156,195 -3.9157,56.16083,193 -3.91538,56.16072,191 -3.91424,56.15945,182 -3.9139,56.15921,180 -3.91426,56.15921,178 -3.91585,56.15809,173 -3.91627,56.15797,172 -3.91661,56.15763,171 -3.9171,56.15741,170 -3.91677,56.15714,168 -3.91587,56.15671,160 -3.91465,56.15627,151 -3.91312,56.15551,142 -3.9121,56.15474,135 -3.91134,56.15435,130 -3.91085,56.15423,128 -3.91046,56.15345,119 -3.90999,56.15286,109 -3.91007,56.15219,97 -3.9099,56.15191,91 -3.90974,56.15186,89 -3.90911,56.1521,82 -3.90891,56.15237,83 -3.90862,56.15141,70 -3.90899,56.15086,59 -3.90992,56.15063,57 -3.91108,56.15054,61 -3.91221,56.15032,64 -3.91408,56.15043,74 -3.91607,56.14987,67 -3.9174,56.15007,67 -3.91839,56.14999,66 -3.91955,56.14952,59 -3.92014,56.14948,58 -3.92227,56.15004,64 -3.92376,56.15027,63 -3.92467,56.14978,53 -3.92488,56.14974,51 -3.92779,56.15044,44 -3.92868,56.15058,42 -3.92899,56.15023,40 -3.92907,56.14996,37 -3.92898,56.14962,35 -3.92979,56.1482,24 -3.92921,56.14761,21 -3.92893,56.14754,21 -3.92901,56.14741,21 -3.92827,56.14621,19 -3.92689,56.14332,20 -3.92637,56.14135,19 -3.92624,56.14134,19 -3.92597,56.14108,19 -3.9257,56.14098,19 -3.9243,56.14098,24 -3.9238,56.14069,27 -3.92224,56.14012,29 -3.92161,56.13998,31 -3.92105,56.14007,33 -3.92068,56.14021,36 -3.92007,56.13966,43 -3.91993,56.13964,44 -3.91994,56.13949,46 -3.91945,56.1394,49 -3.91888,56.13961,55 -3.91846,56.13964,59 -3.91698,56.14,67 -3.91696,56.13993,67 -3.91683,56.13996,67 -3.9168,56.13986,67 -3.91653,56.13976,67 -3.91615,56.13975,67 -3.91613,56.13946,69 -3.9165,56.13946,72 -3.91657,56.13934,72 -3.9168,56.13934,72 -3.91704,56.13916,72 -3.91715,56.1392,72 -3.91758,56.13913,71 -3.91801,56.13887,70 -3.91794,56.13839,69 -3.91753,56.13806,67 -3.91752,56.13768,64 -3.91776,56.13757,61 -3.91741,56.13707,58 -3.91674,56.1367,56 -3.91623,56.13658,55 -3.91606,56.13646,55 -3.91535,56.13643,53 -3.91473,56.13621,47 -3.91464,56.13587,43 -3.91368,56.13569,37 -3.91275,56.13541,30 -3.9126,56.1353,29 -3.912,56.13519,25 -3.90983,56.13452,13 -3.9096,56.13419,12 -3.90971,56.13413,11 -3.90992,56.13342,11 -3.91059,56.13343,12 -3.91156,56.13357,15 -3.91593,56.13514,32 -3.91941,56.13672,28 -3.92022,56.13599,16 -3.92038,56.13573,13 -3.92034,56.13539,12 -3.91993,56.13501,11 -3.91862,56.13432,10 -3.91767,56.13332,7 -3.9176,56.13263,6 -3.91799,56.13211,5 -3.91882,56.13132,5 -3.91915,56.13049,5 -3.91911,56.12692,7 -3.91878,56.12437,8 -3.91886,56.12346,7 -3.92104,56.12311,7 -3.92151,56.12314,7 -3.92167,56.12324,6 -3.92161,56.12391,6 -3.92131,56.12402,6 -3.92131,56.1243,7 -3.92425,56.12405,4 -3.92418,56.12374,4 -3.92438,56.12369,4 -3.9285,56.12394,5 -3.92968,56.12383,5 -3.93017,56.12363,5 -3.93187,56.12323,6 -3.93323,56.12253,8 -3.9339,56.12167,9 -3.93363,56.12155,9 -3.93122,56.11899,9 -3.93053,56.11872,9 -3.92997,56.11812,10 -3.92957,56.11804,10 -3.92779,56.11847,9 -3.92518,56.11935,8 -3.9246,56.11947,8 -3.92331,56.11955,8 -3.9227,56.11947,8 -3.9214,56.1191,8 -3.91989,56.11845,8 -3.91878,56.11816,8 -3.91866,56.11822,8 -3.91845,56.11819,8 -3.91835,56.11809,8 -3.91734,56.11799,8 -3.91494,56.118,8 -3.91372,56.11789,8 -3.91134,56.11744,9 -3.91099,56.11766,9 -3.91121,56.11821,9 -3.90988,56.11898,9 -3.91001,56.12124,7 -3.91023,56.12139,7 -3.91034,56.12188,7 -3.9102,56.12181,7 -3.90991,56.12168,6 -3.90961,56.12158,6 -3.90934,56.12156,6 -3.90905,56.12158,6 -3.90858,56.12165,6 -3.90831,56.1218,6 -3.90811,56.12209,5 -3.90815,56.12228,5 -3.9083,56.12249,5 -3.90863,56.12266,4 -3.90897,56.12275,4 -3.90928,56.12277,5 -3.9096,56.12276,5 -3.90985,56.12268,5 -3.9101,56.12259,5 -3.91027,56.12248,5 -3.91033,56.12238,5 -3.91033,56.12236,5</coordinates>
        </LineString>
        </MultiGeometry>
    </Placemark>
    </Folder>
  </Document>
</kml>
